[
    {
        "Altitude(m)": 607895.8489288773,
        "Argument of Periapsis(deg)": 0.0,
        "Eccentricity": 0.0,
        "Inclination(deg)": 60.0,
        "Latitude(deg)": 40.99842503376983,
        "Longitude(deg)": 55.08858900874984,
        "Mean Anomaly(deg)": 130.9091,
        "RAAN(deg)": 5.0,
        "Satellite Name": "Test1 30",
        "Satellite Number": 30,
        "Semi-Major Axis(m)": 6980739.136638005,
        "Time(s)": 0
    },
    {
        "Altitude(m)": 607795.1619028802,
        "Argument of Periapsis(deg)": 0.00010418945913296404,
        "Eccentricity": 0.0,
        "Inclination(deg)": 60.0,
        "Latitude(deg)": 40.53074986599633,
        "Longitude(deg)": 55.58518440072913,
        "Mean Anomaly(deg)": 131.5292061454618,
        "RAAN(deg)": 4.999579950860257,
        "Satellite Name": "Test1 30",
        "Satellite Number": 30,
        "Semi-Major Axis(m)": 6980739.136638005,
        "Time(s)": 10
    }
]